[
    {
        "Altitude(m)": 622205.875879189,
        "Argument of Periapsis(deg)": 0.0,
        "Eccentricity": 0.0,
        "Inclination(deg)": 60.0,
        "Latitude(deg)": -52.16245856719942,
        "Longitude(deg)": -7.299458037744276,
        "Mean Anomaly(deg)": -114.5455,
        "RAAN(deg)": 225.0,
        "Satellite Name": "Test1 1005",
        "Satellite Number": 1005,
        "Semi-Major Axis(m)": 6980739.136638005,
        "Time(s)": 0
    },
    {
        "Altitude(m)": 622344.7818257563,
        "Argument of Periapsis(deg)": 0.00010418945913296404,
        "Eccentricity": 0.0,
        "Inclination(deg)": 60.0,
        "Latitude(deg)": -52.520036588494854,
        "Longitude(deg)": -6.518243360597573,
        "Mean Anomaly(deg)": -113.92539385453817,
        "RAAN(deg)": 224.99957995086024,
        "Satellite Name": "Test1 1005",
        "Satellite Number": 1005,
        "Semi-Major Axis(m)": 6980739.136638005,
        "Time(s)": 10
    }
]